[{"OBJECT_NAME":"SITRO-AIS 18","OBJECT_ID":"2024-199BH","EPOCH":"2026-03-09T22:56:51.354816","MEAN_MOTION":14.97350577,"ECCENTRICITY":0.00069154,"INCLINATION":97.331,"RA_OF_ASC_NODE":274.6581,"ARG_OF_PERICENTER":53.7115,"MEAN_ANOMALY":306.4746,"EPHEMERIS_TYPE":0,"CLASSIFICATION_TYPE":"U","NORAD_CAT_ID":61790,"ELEMENT_SET_NO":999,"REV_AT_EPOCH":11718,"BSTAR":0.00032194999,"MEAN_MOTION_DOT":3.687e-5,"MEAN_MOTION_DDOT":0},{"OBJECT_NAME":"STARLINK-33738","OBJECT_ID":"2025-094AB","EPOCH":"2026-03-09T21:25:41.733696","MEAN_MOTION":14.98334264,"ECCENTRICITY":0.00030698,"INCLINATION":70.0018,"RA_OF_ASC_NODE":233.9123,"ARG_OF_PERICENTER":266.3856,"MEAN_ANOMALY":93.6952,"EPHEMERIS_TYPE":0,"CLASSIFICATION_TYPE":"U","NORAD_CAT_ID":63889,"ELEMENT_SET_NO":999,"REV_AT_EPOCH":4745,"BSTAR":0.000199935,"MEAN_MOTION_DOT":2.294e-5,"MEAN_MOTION_DDOT":0}]
